
# Worst residual: 166.46 km
# MJD 60298.000000 (2023 Dec 20  0:00)
A10Zuus = A10Zol2
1 79947U 23999ZYW 23354.49919926  .00000000  00000-0  00000-0 0 21897
2 79947 022.4119 324.5853 5772878 347.1168 290.6603 00.84221765    02

# Worst residual: 102.34 km
# MJD 60299.000000 (2023 Dec 21  0:00)
A10Zuus = A10Zol2
1 79947U 23999ZYW 23355.49919926  .00000000  00000-0  00000-0 0 22114
2 79947 022.2838 324.6409 5853607 348.8519 228.1745 00.84020870    01

# Worst residual: 74.81 km
# MJD 60300.000000 (2023 Dec 22  0:00)
A10Zuus = A10Zol2
1 79947U 23999ZYW 23356.49919926  .00000000  00000-0  00000-0 0 22115
2 79947 022.2410 324.6389 5895662 349.3865 170.2880 00.83898499    07

# Worst residual: 71.75 km
# MJD 60301.000000 (2023 Dec 23  0:00)
A10Zuus = A10Zol2
1 79947U 23999ZYW 23357.49919926  .00000000  00000-0  00000-0 0 22116
2 79947 022.1950 324.6308 5951991 349.9385 112.5985 00.83946433    04

# Worst residual: 114.10 km
# MJD 60302.000000 (2023 Dec 24  0:00)
A10Zuus = A10Zol2
1 79947U 23999ZYW 23358.49919926  .00000000  00000-0  00000-0 0 22117
2 79947 022.1355 324.5937 6009484 350.3873 055.1307 00.84187142    05

# Worst residual: 96.49 km
# MJD 60303.000000 (2023 Dec 25  0:00)
A10Zuus = A10Zol2
1 79947U 23999ZYW 23359.49919926  .00000000  00000-0  00000-0 0 22118
2 79947 022.0804 324.6108 6059633 350.8741 357.4288 00.84454399    01

# Worst residual: 142.23 km
# MJD 60304.000000 (2023 Dec 26  0:00)
A10Zuus = A10Zol2
1 79947U 23999ZYW 23360.49919926  .00000000  00000-0  00000-0 0 22110
2 79947 022.0201 324.6247 6118108 351.3547 299.6760 00.84453460    09

# Worst residual: 102.63 km
# MJD 60305.000000 (2023 Dec 27  0:00)
A10Zuus = A10Zol2
1 79947U 23999ZYW 23361.49919926  .00000000  00000-0  00000-0 0 22111
2 79947 021.9674 324.6370 6162923 351.6903 242.3017 00.84251756    05

# Worst residual: 79.45 km
# MJD 60306.000000 (2023 Dec 28  0:00)
A10Zuus = A10Zol2
1 79947U 23999ZYW 23362.49919926  .00000000  00000-0  00000-0 0 22112
2 79947 021.9077 324.6414 6197978 352.1824 184.9592 00.84072733    02

# Worst residual: 52.31 km
# MJD 60307.000000 (2023 Dec 29  0:00)
A10Zuus = A10Zol2
1 79947U 23999ZYW 23363.49919926  .00000000  00000-0  00000-0 0 22113
2 79947 021.8446 324.6328 6247721 352.7488 127.7318 00.84050503    01

# Worst residual: 116.48 km
# MJD 60308.000000 (2023 Dec 30  0:00)
A10Zuus = A10Zol2
1 79947U 23999ZYW 23364.49919926  .00000000  00000-0  00000-0 0 22114
2 79947 021.7816 324.6167 6305610 353.1974 070.6744 00.84238081    07

# Worst residual: 107.54 km
# MJD 60309.000000 (2023 Dec 31  0:00)
A10Zuus = A10Zol2
1 79947U 23999ZYW 23365.49919926  .00000000  00000-0  00000-0 0 22115
2 79947 021.6930 324.6032 6351328 353.6920 013.3663 00.84502755    03

# Worst residual: 129.46 km
# MJD 60310.000000 (2024 Jan  1  0:00)
A10Zuus = A10Zol2
1 79947U 23999ZYW 24001.49919926  .00000000  00000-0  00000-0 0 22113
2 79947 021.6055 324.6156 6403386 354.2076 315.7749 00.84536291    05

# Worst residual: 134.05 km
# MJD 60311.000000 (2024 Jan  2  0:00)
A10Zuus = A10Zol2
1 79947U 23999ZYW 24002.49919926  .00000000  00000-0  00000-0 0 22114
2 79947 021.5337 324.6319 6450126 354.5810 258.4367 00.84341324    01

# Worst residual: 80.53 km
# MJD 60312.000000 (2024 Jan  3  0:00)
A10Zuus = A10Zol2
1 79947U 23999ZYW 24003.49919926  .00000000  00000-0  00000-0 0 22115
2 79947 021.4574 324.6334 6478340 355.0232 201.1780 00.84116285    02

# Worst residual: 61.96 km
# MJD 60313.000000 (2024 Jan  4  0:00)
A10Zuus = A10Zol2
1 79947U 23999ZYW 24004.49919926  .00000000  00000-0  00000-0 0 22116
2 79947 021.3777 324.6189 6518550 355.5806 143.9429 00.84042231    06

# Worst residual: 92.27 km
# MJD 60314.000000 (2024 Jan  5  0:00)
A10Zuus = A10Zol2
1 79947U 23999ZYW 24005.49919926  .00000000  00000-0  00000-0 0 22117
2 79947 021.3087 324.5830 6572612 356.0631 086.8435 00.84176148    00

# Worst residual: 103.55 km
# MJD 60315.000000 (2024 Jan  6  0:00)
A10Zuus = A10Zol2
1 79947U 23999ZYW 24006.49919926  .00000000  00000-0  00000-0 0 22118
2 79947 021.2051 324.5565 6616155 356.5301 029.6065 00.84438550    07

# Worst residual: 107.41 km
# MJD 60316.000000 (2024 Jan  7  0:00)
A10Zuus = A10Zol2
1 79947U 23999ZYW 24007.49919926  .00000000  00000-0  00000-0 0 22119
2 79947 021.0996 324.5546 6661458 357.0458 332.0166 00.84538348    06

# Worst residual: 143.73 km
# MJD 60317.000000 (2024 Jan  8  0:00)
A10Zuus = A10Zol2
1 79947U 23999ZYW 24008.49919926  .00000000  00000-0  00000-0 0 22110
2 79947 021.0051 324.5646 6707533 357.4498 274.5710 00.84382597    00

# Worst residual: 81.45 km
# MJD 60318.000000 (2024 Jan  9  0:00)
A10Zuus = A10Zol2
1 79947U 23999ZYW 24009.49919926  .00000000  00000-0  00000-0 0 22111
2 79947 020.9141 324.5633 6733250 357.8537 217.2814 00.84141453    00

# Worst residual: 65.98 km
# MJD 60319.000000 (2024 Jan 10  0:00)
A10Zuus = A10Zol2
1 79947U 23999ZYW 24010.49919926  .00000000  00000-0  00000-0 0 22113
2 79947 020.8177 324.5446 6768346 358.3930 160.0083 00.84046208    02

# Worst residual: 104.42 km
# MJD 60320.000000 (2024 Jan 11  0:00)
A10Zuus = A10Zol2
1 79947U 23999ZYW 24011.49919926  .00000000  00000-0  00000-0 0 22114
2 79947 020.7284 324.4972 6815492 358.9342 102.7975 00.84125474    07

# Worst residual: 116.08 km
# MJD 60321.000000 (2024 Jan 12  0:00)
A10Zuus = A10Zol2
1 79947U 23999ZYW 24012.49919926  .00000000  00000-0  00000-0 0 22115
2 79947 020.6174 324.4454 6857446 359.4018 045.5915 00.84370460    05

# Worst residual: 84.72 km
# MJD 60322.000000 (2024 Jan 13  0:00)
A10Zuus = A10Zol2
1 79947U 23999ZYW 24013.49919926  .00000000  00000-0  00000-0 0 22116
2 79947 020.4835 324.4042 6895898 359.9415 348.0105 00.84538328    00
